OPTICUBE 04             
1 41851U 16067D   19061.91646893 -.00000219  00000-0 -13813-4 0  9996
2 41851  97.9138 158.2600 0009443  30.9323 329.2453 14.96763600125794
AEROCUBE 8D             
1 41852U 16067E   19061.91174728 -.00000243  00000-0 -15955-4 0  9996
2 41852  97.9152 158.0817 0010237  30.7015 329.4803 14.96647380125773
AEROCUBE 8C             
1 41853U 16067F   19062.26640272  .00000459  00000-0  45592-4 0  9995
2 41853  97.9148 158.3848 0010438  31.9960 328.1893 14.96610226125821
PROMETHEUS 2-1          
1 41854U 16067G   19062.51543260  .00000028  00000-0  77501-5 0  9991
2 41854  97.9156 158.7266 0010732  29.0556 331.1260 14.96793248125867
PROMETHEUS 2-3          
1 41855U 16067H   19062.45124062  .00000144  00000-0  17844-4 0  9992
2 41855  97.9158 158.6733 0010878  29.5693 330.6141 14.96795627125850
INS-1B                  
1 41954U 17008G   19061.80101551  .00001368  00000-0  59965-4 0  9993
2 41954  97.4132 128.2061 0009959 156.1790 203.9910 15.23652007113372
BGUSAT                  
1 41999U 17008BD  19061.73488399  .00002516  00000-0  10175-3 0  9997
2 41999  97.4195 130.0744 0008646 169.2972 190.8452 15.25629848112832
DIDO-2                  
1 42000U 17008BE  19061.92086334  .00000994  00000-0  44343-4 0  9998
2 42000  97.4145 128.8535 0008724 172.5539 187.5830 15.23686797112799
PEASSS                  
1 42015U 17008BV  19062.47577660  .00001234  00000-0  52960-4 0  9994
2 42015  97.4148 130.1975 0006540 173.1123 187.0206 15.24594710113418
AL-FARABI 1             
1 42016U 17008BW  19061.86053526  .00001572  00000-0  65553-4 0  9994
2 42016  97.4161 130.0115 0006387 174.3812 185.7498 15.25154921113466
NAYIF-1 (EO-88)         
1 42017U 17008BX  19061.91587641  .00001532  00000-0  63937-4 0  9991
2 42017  97.4159 130.0755 0006366 174.4550 185.6759 15.25184374113498
CXBN-2                  
1 42704U 98067LM  19059.52249959  .04259319  12249-4  63401-3 0  9998
2 42704  51.6124 101.1040 0002748  40.6309 108.8739 16.33621154102537
PHOENIX                 
1 42706U 98067LP  19062.30671446  .00103621  00000-0  39292-3 0  9999
2 42706  51.6257 101.6042 0003453  50.2686 309.8622 15.86829091102779
ALTAIR PATHFINDER       
1 42711U 98067LS  19062.38093930  .00030109  00000-0  21406-3 0  9997
2 42711  51.6329 123.3914 0003726  68.5927 291.5469 15.73602975102151
SHARC                   
1 42712U 98067LT  19062.41354592  .00114488  00000-0  47361-3 0  9997
2 42712  51.6297 117.5820 0004144  37.9592 322.1703 15.84989447102471
ZA-AEROSAT              
1 42713U 98067LU  19062.39765710  .00082454  00000-0  34711-3 0  9995
2 42713  51.6320 106.8161 0003751  52.6310 307.5035 15.84755442102373
CSUNSAT1                
1 42715U 98067LW  19062.48419325  .00109507  00000-0  38419-3 0  9993
2 42715  51.6288 102.8480 0004642  56.6140 303.5309 15.88375672102437
SPACECUBE               
1 42717U 98067LY  19059.60577340  .11886658  12464-4  71601-3 0  9999
2 42717  51.6020 100.2529 0001466  12.7224 347.7311 16.41511985101572
NJUST-1                 
1 42722U 98067MB  19062.52289406  .00057850  00000-0  29222-3 0  9996
2 42722  51.6384 111.2033 0003525  93.4869  48.0848 15.81010235101393
LILACSAT-1 (LO-90)      
1 42725U 98067ME  19062.47538024  .00279205  43468-4  55844-3 0  9994
2 42725  51.6302  96.3742 0005829  63.5418  77.6271 15.99257455101498
NSIGHT                  
1 42726U 98067MF  19062.46896149  .00021283  00000-0  19992-3 0  9995
2 42726  51.6377 135.4423 0004690 114.0903 246.0584 15.67094002100982
SNUSAT-1B               
1 42727U 98067MG  19062.32072990  .00228514  32221-4  50356-3 0  9990
2 42727  51.6244  97.7843 0005897  61.2637 298.8964 15.97579632101426
SNUSAT-1                
1 42733U 98067MN  19062.49437555  .00511998  14004-3  60732-3 0  9995
2 42733  51.6209  91.3227 0006573  58.0411 302.1240 16.07852985101418
BEEAGLESAT              
1 42736U 98067MR  19062.49855697  .00128244  00000-0  41642-3 0  9994
2 42736  51.6284 101.3524 0003722  78.8465 281.2959 15.89860199101349
UCLSAT                  
1 42765U 17036A   19061.88919776  .00001238  00000-0  56440-4 0  9990
2 42765  97.3661 122.1371 0010076 245.1144 114.9046 15.22461004 94654
LITUANICASAT-2          
1 42768U 17036D   19061.93106126  .00001938  00000-0  86903-4 0  9990
2 42768  97.3691 121.7391 0014029 234.8806 125.1117 15.22335579 93917
AALTO-1                 
1 42775U 17036L   19061.85256495  .00000803  00000-0  39107-4 0  9998
2 42775  97.3649 121.0896 0012745 234.6215 125.3831 15.21146623 93819
URSA MAIOR              
1 42776U 17036M   19061.88797023  .00000850  00000-0  41056-4 0  9997
2 42776  97.3657 121.2386 0012546 234.3709 125.6359 15.21265636 93824
COMPASS 2               
1 42777U 17036N   19061.89351649  .00001620  00000-0  72780-4 0  9993
2 42777  97.3692 122.1420 0011354 235.7136 124.3026 15.22520536 93863
DIAMOND RED             
1 42783U 17036U   19061.83172299  .00001004  00000-0  47005-4 0  9994
2 42783  97.3662 121.7669 0010729 246.1194 113.8918 15.21964292 93843
PEGASUS                 
1 42784U 17036V   19061.83051262  .00001146  00000-0  52842-4 0  9993
2 42784  97.3665 121.9350 0010624 245.8136 114.1990 15.22227903 93859
DIAMOND GREEN           
1 42785U 17036W   19062.15925841  .00000975  00000-0  45717-4 0  9995
2 42785  97.3663 122.1084 0010633 245.4429 114.5700 15.21963772 93882
DIAMOND BLUE            
1 42786U 17036X   19061.82952662  .00000989  00000-0  46353-4 0  9992
2 42786  97.3664 121.7847 0010454 247.0362 112.9771 15.21963312 93836
NUDTSAT                 
1 42787U 17036Y   19061.95765912  .00001377  00000-0  61381-4 0  9997
2 42787  97.3703 122.5704 0009915 252.4191 107.5963 15.23061193 93743
SUCHAI                  
1 42788U 17036Z   19062.39102303  .00001420  00000-0  64069-4 0  9991
2 42788  97.3667 122.7140 0010254 242.7698 117.2494 15.22596105 94025
SKCUBE                  
1 42789U 17036AA  19061.94041847  .00001243  00000-0  56596-4 0  9996
2 42789  97.3665 122.2350 0010094 244.6564 115.3628 15.22514964 93870
VZLUSAT-1               
1 42790U 17036AB  19061.74763341  .00001663  00000-0  73483-4 0  9996
2 42790  97.3677 122.3681 0009708 244.5865 115.4368 15.23069450 93863
ROBUSTA-1B              
1 42792U 17036AD  19061.68567644  .00001284  00000-0  58066-4 0  9998
2 42792  97.3666 122.1055 0009653 246.3831 113.6392 15.22676537 93853
CICERO 6                
1 42793U 17036AE  19061.72023321  .00000866  00000-0  40505-4 0  9997
2 42793  97.3652 122.0065 0008844 247.8280 112.2018 15.22361070 93925
D-SAT                   
1 42794U 17036AF  19062.43522382  .00000274  00000-0  29036-4 0  9997
2 42794  97.5554 111.7701 0127826 138.6163 222.4827 14.91029581 92351
TOKI                    
1 42820U 98067MU  19062.51176698  .00112790  00000-0  39738-3 0  9990
2 42820  51.6286 106.0017 0004403  46.2324 313.9044 15.88280791 94740
MAZAALAI (NUMSAT-1)     
1 42822U 98067MW  19062.51679215  .00099170  00000-0  37683-3 0  9998
2 42822  51.6303 107.5832 0004123  50.8237 309.3133 15.86799899 94702
BRAC ONNESHA            
1 42823U 98067MX  19061.58517260  .00103239  00000-0  38081-3 0  9991
2 42823  51.6278 111.8463 0004948  56.9925 303.1554 15.87384329 94582
NIGERIAEDUSAT-1         
1 42824U 98067MY  19062.18616887  .00093224  00000-0  36034-3 0  9992
2 42824  51.6313 109.9412 0004664  63.8578 296.2905 15.86470593 94637
CORVUS BC2              
1 42846U 17042X   19061.76676770  .00000017  00000-0  70252-5 0  9990
2 42846  97.5783 319.9939 0010983  59.5480 300.6822 14.91927156 88923
CORVUS BC1              
1 42847U 17042Y   19061.66016741  .00000324  00000-0  37218-4 0  9991
2 42847  97.5783 319.9804 0010597  59.3675 300.8588 14.92027016 88906
SILU-1 (SILKROAD 1)     
1 42903U 17021F   19062.49417157  .00182084  21210-4  41069-3 0  9991
2 42903  42.7679 176.7152 0017020 357.3374  56.7222 15.96669973 90965
MIRATA                  
1 43015U 17073C   19062.44199114  .00000743  00000-0  63163-4 0  9999
2 43015  97.7182 347.8587 0256945 146.9466 214.8106 14.78719019 69440
MAKERSAT 0              
1 43016U 17073D   19061.76404695  .00000481  00000-0  42649-4 0  9992
2 43016  97.7213 347.3945 0258864 149.3695 212.2925 14.78548130 69335
ASTERIA                 
1 43020U 98067NH  19062.49938165  .00025276  00000-0  24511-3 0  9990
2 43020  51.6420 145.5294 0002831  60.3126 299.8151 15.66190400 73031
DELLINGR (RBLE)         
1 43021U 98067NJ  19062.49824066  .00009659  00000-0  11773-3 0  9998
2 43021  51.6388 152.9391 0002678  55.7983 304.3264 15.61224119 72938
OSIRIS-3U               
1 43027U 98067NL  19062.61040973  .01297389  12263-2  97152-3 0  9996
2 43027  51.6288 113.1773 0007677  32.9085 108.3497 16.14893012 73349
AEROCUBE 7B (OCSD B)    
1 43042U 17071F   19061.90604891  .00005178  00000-0  13544-3 0  9994
2 43042  51.6367 219.6011 0005273 123.5924 236.5565 15.40476058 69463
AEROCUBE 7C (OCSD C)    
1 43043U 17071G   19061.90630400  .00004501  00000-0  11911-3 0  9995
2 43043  51.6371 219.6149 0005412 124.9616 235.1878 15.40458119 69436
CHEFSAT                 
1 43044U 17071H   19061.93241604  .00006555  00000-0  15795-3 0  9998
2 43044  51.6374 216.1207 0005131 125.4650 234.6815 15.42515293 69488
ASGARDIA 1              
1 43049U 17071N   19061.86700386  .00003817  00000-0  10214-3 0  9991
2 43049  51.6376 219.3718 0002868 138.5421 221.5782 15.40573155 69434
ISARA                   
1 43050U 17071P   19061.85109713  .00007203  00000-0  17500-3 0  9997
2 43050  51.6365 217.0487 0002702 137.2075 222.9121 15.42098576 69466
PROPCUBE 2 (FAUNA)      
1 43052U 17071R   19061.69586039  .00004761  00000-0  12405-3 0  9996
2 43052  51.6375 219.7448 0002818 134.8753 225.2462 15.40799057 69407
CORVUS BC3              
1 43118U 18004H   19062.23129897  .00000817  00000-0  38145-4 0  9990
2 43118  97.4995 129.8851 0008884 268.1096  91.9123 15.22656280 63120
